COMMENT,ORIGINATOR,NORAD_CAT_ID,OBJECT_NAME,OBJECT_TYPE,CLASSIFICATION_TYPE,INTLDES,EPOCH,EPOCH_MICROSECONDS,MEAN_MOTION,ECCENTRICITY,INCLINATION,RA_OF_ASC_NODE,ARG_OF_PERICENTER,MEAN_ANOMALY,EPHEMERIS_TYPE,ELEMENT_SET_NO,REV_AT_EPOCH,BSTAR,MEAN_MOTION_DOT,MEAN_MOTION_DDOT,FILE,TLE_LINE0,TLE_LINE1,TLE_LINE2,OBJECT_ID,OBJECT_NUMBER,SEMIMAJOR_AXIS,PERIOD,APOGEE,PERIGEE,DECAYED
"GENERATED VIA SPACETRACK.ORG API","18 SPCS","48893","SPACEBEE-106","PAYLOAD","U","21059Q","2023-09-22 08:56:05","209728","15.38440803","0.0005683","97.607","45.3142","284.2381","75.8232","0","999","12429","0.0013261","0.00050493","0","4013462","0 SPACEBEE-106","1 48893U 21059Q   23265.37228252  .00050493  00000-0  13261-2 0  9994","2 48893  97.6070  45.3142 0005683 284.2381  75.8232 15.38440803124293","2021-059Q","48893","6828.856","93.601","454.602","446.841","0"
"GENERATED VIA SPACETRACK.ORG API","18 SPCS","48893","SPACEBEE-106","PAYLOAD","U","21059Q","2023-09-22 08:56:05","209728","15.38440803","0.0005683","97.607","45.3142","284.2381","75.8232","0","999","12429","0.0013261","0.00050493","0","4013584","0 SPACEBEE-106","1 48893U 21059Q   23265.37228252  .00050493  00000-0  13261-2 0  9994","2 48893  97.6070  45.3142 0005683 284.2381  75.8232 15.38440803124293","2021-059Q","48893","6828.856","93.601","454.602","446.841","0"
"GENERATED VIA SPACETRACK.ORG API","18 SPCS","48893","SPACEBEE-106","PAYLOAD","U","21059Q","2023-09-22 21:25:22","16352","15.38499877","0.000576","97.6066","45.8539","283.4799","76.5803","0","999","12437","0.0015439","0.00058978","0","4013859","0 SPACEBEE-106","1 48893U 21059Q   23265.89261593  .00058978  00000-0  15439-2 0  9991","2 48893  97.6066  45.8539 0005760 283.4799  76.5803 15.38499877124379","2021-059Q","48893","6828.682","93.598","454.480","446.613","0"
"GENERATED VIA SPACETRACK.ORG API","18 SPCS","48893","SPACEBEE-106","PAYLOAD","U","21059Q","2023-09-23 08:20:57","718464","15.38555056","0.000575","97.6066","46.3256","281.2873","78.7725","0","999","12444","0.0014795","0.00056599","0","4014280","0 SPACEBEE-106","1 48893U 21059Q   23266.34789026  .00056599  00000-0  14795-2 0  9999","2 48893  97.6066  46.3256 0005750 281.2873  78.7725 15.38555056124446","2021-059Q","48893","6828.518","93.594","454.310","446.457","0"
"GENERATED VIA SPACETRACK.ORG API","18 SPCS","48893","SPACEBEE-106","PAYLOAD","U","21059Q","2023-09-23 08:20:57","718464","15.38555056","0.000575","97.6066","46.3256","281.2873","78.7725","0","999","12444","0.0014795","0.00056599","0","4014543","0 SPACEBEE-106","1 48893U 21059Q   23266.34789026  .00056599  00000-0  14795-2 0  9999","2 48893  97.6066  46.3256 0005750 281.2873  78.7725 15.38555056124446","2021-059Q","48893","6828.518","93.594","454.310","446.457","0"
"GENERATED VIA SPACETRACK.ORG API","18 SPCS","48893","SPACEBEE-106","PAYLOAD","U","21059Q","2023-09-24 09:19:22","700352","15.38681215","0.0005745","97.6067","47.4045","277.654","82.4052","0","999","12460","0.001341","0.00051469","0","4015222","0 SPACEBEE-106","1 48893U 21059Q   23267.38845718  .00051469  00000-0  13410-2 0  9999","2 48893  97.6067  47.4045 0005745 277.6540  82.4052 15.38681215124609","2021-059Q","48893","6828.145","93.587","453.933","446.087","0"
"GENERATED VIA SPACETRACK.ORG API","18 SPCS","48893","SPACEBEE-106","PAYLOAD","U","21059Q","2023-09-24 09:19:22","700352","15.38681215","0.0005745","97.6067","47.4045","277.654","82.4052","0","999","12460","0.001341","0.00051469","0","4015358","0 SPACEBEE-106","1 48893U 21059Q   23267.38845718  .00051469  00000-0  13410-2 0  9999","2 48893  97.6067  47.4045 0005745 277.6540  82.4052 15.38681215124609","2021-059Q","48893","6828.145","93.587","453.933","446.087","0"
"GENERATED VIA SPACETRACK.ORG API","18 SPCS","48893","SPACEBEE-106","PAYLOAD","U","21059Q","2023-09-24 21:48:32","423040","15.38741665","0.0005785","97.6065","47.9445","276.6101","83.4485","0","999","12468","0.0014551","0.00055999","0","4015673","0 SPACEBEE-106","1 48893U 21059Q   23267.90870860  .00055999  00000-0  14551-2 0  9992","2 48893  97.6065  47.9445 0005785 276.6101  83.4485 15.38741665124687","2021-059Q","48893","6827.966","93.583","453.781","445.881","0"
"GENERATED VIA SPACETRACK.ORG API","18 SPCS","48893","SPACEBEE-106","PAYLOAD","U","21059Q","2023-09-25 08:44:01","658976","15.38829915","0.0005842","97.6066","48.4161","275.2266","84.8312","0","999","12475","0.0028244","0.00109856","0","4016101","0 SPACEBEE-106","1 48893U 21059Q   23268.36390809  .00109856  00000-0  28244-2 0  9999","2 48893  97.6066  48.4161 0005842 275.2266  84.8312 15.38829915124757","2021-059Q","48893","6827.705","93.578","453.559","445.581","0"
"GENERATED VIA SPACETRACK.ORG API","18 SPCS","48893","SPACEBEE-106","PAYLOAD","U","21059Q","2023-09-25 08:44:01","658976","15.38829915","0.0005842","97.6066","48.4161","275.2266","84.8312","0","999","12475","0.0028244","0.00109856","0","4016340","0 SPACEBEE-106","1 48893U 21059Q   23268.36390809  .00109856  00000-0  28244-2 0  9999","2 48893  97.6066  48.4161 0005842 275.2266  84.8312 15.38829915124757","2021-059Q","48893","6827.705","93.578","453.559","445.581","0"
"GENERATED VIA SPACETRACK.ORG API","18 SPCS","48893","SPACEBEE-106","PAYLOAD","U","21059Q","2023-09-25 16:32:12","903072","15.38863529","0.0005798","97.6064","48.7537","274.9037","85.1546","0","999","12480","0.0019778","0.00076654","0","4016507","0 SPACEBEE-106","1 48893U 21059Q   23268.68903823  .00076654  00000-0  19778-2 0  9991","2 48893  97.6064  48.7537 0005798 274.9037  85.1546 15.38863529124805","2021-059Q","48893","6827.606","93.576","453.429","445.512","0"
"GENERATED VIA SPACETRACK.ORG API","18 SPCS","48893","SPACEBEE-106","PAYLOAD","U","21059Q","2023-09-25 22:46:45","234624","15.38902352","0.000582","97.6065","49.0233","274.3591","85.6989","0","999","12484","0.0017169","0.00066527","0","4016730","0 SPACEBEE-106","1 48893U 21059Q   23268.94913466  .00066527  00000-0  17169-2 0  9994","2 48893  97.6065  49.0233 0005820 274.3591  85.6989 15.38902352124846","2021-059Q","48893","6827.491","93.573","453.330","445.382","0"
"GENERATED VIA SPACETRACK.ORG API","18 SPCS","48893","SPACEBEE-106","PAYLOAD","U","21059Q","2023-09-26 08:08:32","764704","15.38955137","0.000577","97.6066","49.428","272.9923","87.0661","0","999","12490","0.0015069","0.00058418","0","4017272","0 SPACEBEE-106","1 48893U 21059Q   23269.33926811  .00058418  00000-0  15069-2 0  9993","2 48893  97.6066  49.4280 0005770 272.9923  87.0661 15.38955137124909","2021-059Q","48893","6827.335","93.570","453.139","445.260","0"
"GENERATED VIA SPACETRACK.ORG API","18 SPCS","48893","SPACEBEE-106","PAYLOAD","U","21059Q","2023-09-26 08:08:32","764704","15.38955137","0.000577","97.6066","49.428","272.9923","87.0661","0","999","12490","0.0015069","0.00058418","0","4017359","0 SPACEBEE-106","1 48893U 21059Q   23269.33926811  .00058418  00000-0  15069-2 0  9993","2 48893  97.6066  49.4280 0005770 272.9923  87.0661 15.38955137124909","2021-059Q","48893","6827.335","93.570","453.139","445.260","0"
"GENERATED VIA SPACETRACK.ORG API","18 SPCS","48893","SPACEBEE-106","PAYLOAD","U","21059Q","2023-09-26 20:37:34","148064","15.3903975","0.0005738","97.6069","49.9682","273.0593","86.9995","0","999","12498","0.0020245","0.0007894","0","4017567","0 SPACEBEE-106","1 48893U 21059Q   23269.85942301  .00078940  00000-0  20245-2 0  9996","2 48893  97.6069  49.9682 0005738 273.0593  86.9995 15.39039750124983","2021-059Q","48893","6827.085","93.565","452.867","445.032","0"
"GENERATED VIA SPACETRACK.ORG API","18 SPCS","48893","SPACEBEE-106","PAYLOAD","U","21059Q","2023-09-26 22:11:11","648832","15.39049245","0.0005746","97.6068","50.0356","272.5766","87.4821","0","999","12499","0.0019483","0.0007596","0","4017635","0 SPACEBEE-106","1 48893U 21059Q   23269.92444038  .00075960  00000-0  19483-2 0  9999","2 48893  97.6068  50.0356 0005746 272.5766  87.4821 15.39049245124993","2021-059Q","48893","6827.057","93.564","452.844","444.999","0"
"GENERATED VIA SPACETRACK.ORG API","18 SPCS","48893","SPACEBEE-106","PAYLOAD","U","21059Q","2023-09-27 09:06:33","309216","15.39109712","0.0005753","97.6068","50.5074","269.3505","90.7081","0","999","12506","0.0015839","0.00061744","0","4018203","0 SPACEBEE-106","1 48893U 21059Q   23270.37955219  .00061744  00000-0  15839-2 0  9994","2 48893  97.6068  50.5074 0005753 269.3505  90.7081 15.39109712125068","2021-059Q","48893","6826.878","93.561","452.670","444.815","0"
"GENERATED VIA SPACETRACK.ORG API","18 SPCS","48893","SPACEBEE-106","PAYLOAD","U","21059Q","2023-09-27 15:21:02","213280","15.39134633","0.0005759","97.6067","50.7777","268.7334","91.3251","0","999","12510","0.001549","0.00060421","0","4018269","0 SPACEBEE-106","1 48893U 21059Q   23270.63960895  .00060421  00000-0  15490-2 0  9993","2 48893  97.6067  50.7777 0005759 268.7334  91.3251 15.39134633125109","2021-059Q","48893","6826.804","93.559","452.601","444.737","0"
"GENERATED VIA SPACETRACK.ORG API","18 SPCS","48893","SPACEBEE-106","PAYLOAD","U","21059Q","2023-09-28 08:30:49","347648","15.39219729","0.0005891","97.6075","51.5197","266.2501","93.807","0","999","12521","0.0013237","0.00051706","0","4019158","0 SPACEBEE-106","1 48893U 21059Q   23271.35473782  .00051706  00000-0  13237-2 0  9990","2 48893  97.6075  51.5197 0005891 266.2501  93.8070 15.39219729125217","2021-059Q","48893","6826.552","93.554","452.439","444.396","0"
"GENERATED VIA SPACETRACK.ORG API","18 SPCS","48893","SPACEBEE-106","PAYLOAD","U","21059Q","2023-09-28 16:18:53","323776","15.39255843","0.0005874","97.6077","51.8576","266.0734","93.984","0","999","12526","0.0015477","0.00060612","0","4019211","0 SPACEBEE-106","1 48893U 21059Q   23271.67978384  .00060612  00000-0  15477-2 0  9997","2 48893  97.6077  51.8576 0005874 266.0734  93.9840 15.39255843125268","2021-059Q","48893","6826.446","93.552","452.320","444.301","0"
